NORAD_CAT_ID,OBJECT_NAME,OBJECT_TYPE,EPOCH,MEAN_MOTION,ECCENTRICITY,INCLINATION,RA_OF_ASC_NODE,ARG_OF_PERICENTER,MEAN_ANOMALY,BSTAR,MEAN_MOTION_DOT,MEAN_MOTION_DDOT,TLE_LINE0,TLE_LINE1,TLE_LINE2,SEMIMAJOR_AXIS,PERIOD,APOGEE,PERIGEE,DECAYED
52139.0,STARLINK-3730,PAYLOAD,2023-06-28 17:13:08,15.08837562,0.0001066,53.2161,180.8326,83.2847,276.8266,4.5629e-05,4.38e-06,0.0,0 STARLINK-3730,1 52139U 22029BD  23179.71746162  .00000438  00000-0  45629-4 0  9996,2 52139  53.2161 180.8326 0001066  83.2847 276.8266 15.08837562 72093,6917.888,95.438,540.49,539.015,0.0
52139.0,STARLINK-3730,PAYLOAD,2023-07-01 08:48:34,15.0883862,0.0001131,53.2162,168.9369,86.6459,273.4663,1.8249e-05,3e-08,0.0,0 STARLINK-3730,1 52139U 22029BD  23182.36706205  .00000003  00000-0  18249-4 0  9991,2 52139  53.2162 168.9369 0001131  86.6459 273.4663 15.08838620 72491,6917.885,95.438,540.532,538.967,0.0
52139.0,STARLINK-3730,PAYLOAD,2023-07-03 02:08:35,15.08837914,0.0001145,53.2163,161.2062,86.9121,273.2002,4.4949e-05,4.28e-06,0.0,0 STARLINK-3730,1 52139U 22029BD  23184.08930236  .00000428  00000-0  44949-4 0  9992,2 52139  53.2163 161.2062 0001145  86.9121 273.2002 15.08837914 72751,6917.887,95.438,540.544,538.96,0.0
52139.0,STARLINK-3730,PAYLOAD,2023-07-04 08:20:55,15.08838116,0.0001151,53.2164,155.5565,87.087,273.0254,2.29e-05,7.7e-07,0.0,0 STARLINK-3730,1 52139U 22029BD  23185.34786494  .00000077  00000-0  22900-4 0  9990,2 52139  53.2164 155.5565 0001151  87.0870 273.0254 15.08838116 72949,6917.886,95.438,540.547,538.955,0.0
52139.0,STARLINK-3730,PAYLOAD,2023-07-05 00:14:47,15.08833071,0.0001136,53.2165,152.583,92.0804,268.0318,-1.5654e-05,-5.37e-06,0.0,0 STARLINK-3730,1 52139U 22029BD  23186.01027156 -.00000537  00000-0 -15654-4 0  9999,2 52139  53.2165 152.5830 0001136  92.0804 268.0318 15.08833071 73040,6917.902,95.438,540.552,538.981,0.0
52139.0,STARLINK-3730,PAYLOAD,2023-07-06 06:27:06,15.08840615,0.0001141,53.2164,146.933,89.1203,270.9919,7.1892e-05,8.57e-06,0.0,0 STARLINK-3730,1 52139U 22029BD  23187.26882814  .00000857  00000-0  71892-4 0  9996,2 52139  53.2164 146.9330 0001141  89.1203 270.9919 15.08840615 73239,6917.879,95.438,540.533,538.954,0.0
52139.0,STARLINK-3730,PAYLOAD,2023-07-07 14:14:49,15.08836393,0.0001262,53.2163,140.9858,84.2153,275.8983,3.1657e-05,2.16e-06,0.0,0 STARLINK-3730,1 52139U 22029BD  23188.59363275  .00000216  00000-0  31657-4 0  9992,2 52139  53.2163 140.9858 0001262  84.2153 275.8983 15.08836393 73436,6917.891,95.438,540.629,538.883,0.0
52139.0,STARLINK-3730,PAYLOAD,2023-07-09 02:48:42,15.08831102,0.0001205,53.2166,134.1444,99.1396,260.9732,0.00017186,2.448e-05,0.0,0 STARLINK-3730,1 52139U 22029BD  23190.11715341  .00002448  00000-0  17186-3 0  9997,2 52139  53.2166 134.1444 0001205  99.1396 260.9732 15.08831102 73661,6917.908,95.438,540.606,538.939,0.0
52139.0,STARLINK-3730,PAYLOAD,2023-07-10 05:50:15,15.08836796,0.0001243,53.2167,129.0901,96.9357,263.1776,2.9808e-05,1.87e-06,0.0,0 STARLINK-3730,1 52139U 22029BD  23191.24323519  .00000187  00000-0  29808-4 0  9997,2 52139  53.2167 129.0901 0001243  96.9357 263.1776 15.08836796 73833,6917.89,95.438,540.615,538.895,0.0
52139.0,STARLINK-3730,PAYLOAD,2023-07-11 05:41:02,15.08844182,0.0001287,53.2171,124.6293,99.3134,260.8004,7.8384e-05,9.6e-06,0.0,0 STARLINK-3730,1 52139U 22029BD  23192.23682895  .00000960  00000-0  78384-4 0  9994,2 52139  53.2171 124.6293 0001287  99.3134 260.8004 15.08844182 73983,6917.868,95.437,540.623,538.842,0.0
52139.0,STARLINK-3730,PAYLOAD,2023-07-11 21:34:54,15.08833363,0.0001323,53.2176,121.6551,92.6479,267.4665,-1.0353e-05,-4.53e-06,0.0,0 STARLINK-3730,1 52139U 22029BD  23192.89924076 -.00000453  00000-0 -10353-4 0  9997,2 52139  53.2176 121.6551 0001323  92.6479 267.4665 15.08833363 74088,6917.901,95.438,540.681,538.85,0.0
52139.0,STARLINK-3730,PAYLOAD,2023-07-12 11:53:22,15.08838346,0.0001234,53.2172,118.9804,90.8048,269.3085,2.6499e-05,1.34e-06,0.0,0 STARLINK-3730,1 52139U 22029BD  23193.49539728  .00000134  00000-0  26499-4 0  9992,2 52139  53.2172 118.9804 0001234  90.8048 269.3085 15.08838346 74170,6917.885,95.438,540.604,538.897,0.0
52139.0,STARLINK-3730,PAYLOAD,2023-07-13 18:05:42,15.08831225,0.0001346,53.217,113.3323,103.1113,257.0029,5.6228e-05,6.07e-06,0.0,0 STARLINK-3730,1 52139U 22029BD  23194.75396373  .00000607  00000-0  56228-4 0  9997,2 52139  53.2170 113.3323 0001346 103.1113 257.0029 15.08831225 74360,6917.907,95.438,540.703,538.841,0.0
52139.0,STARLINK-3730,PAYLOAD,2023-07-14 03:38:00,15.08843408,0.0001206,53.2164,111.5477,95.1493,264.9637,-2.1562e-05,-6.31e-06,0.0,0 STARLINK-3730,1 52139U 22029BD  23195.15140036 -.00000631  00000-0 -21562-4 0  9997,2 52139  53.2164 111.5477 0001206  95.1493 264.9637 15.08843408 74424,6917.87,95.437,540.569,538.901,0.0
52139.0,STARLINK-3730,PAYLOAD,2023-07-15 03:28:46,15.08851815,0.0001179,53.2164,107.0862,101.6162,258.4963,0.00017589,2.513e-05,0.0,0 STARLINK-3730,1 52139U 22029BD  23196.14498808  .00002513  00000-0  17589-3 0  9992,2 52139  53.2164 107.0862 0001179 101.6162 258.4963 15.08851815 74574,6917.844,95.437,540.525,538.894,0.0
52139.0,STARLINK-3730,PAYLOAD,2023-07-16 03:19:35,15.08838913,0.0001202,53.2176,102.6235,100.9944,259.1184,9.8299e-06,-1.31e-06,0.0,0 STARLINK-3730,1 52139U 22029BD  23197.13860234 -.00000131  00000-0  98299-5 0  9992,2 52139  53.2176 102.6235 0001202 100.9944 259.1184 15.08838913 74723,6917.884,95.438,540.58,538.917,0.0
52139.0,STARLINK-3730,PAYLOAD,2023-07-16 23:59:35,15.08850422,0.0001297,53.2175,98.7596,94.8086,265.3055,-3.8522e-06,-3.49e-06,0.0,0 STARLINK-3730,1 52139U 22029BD  23197.99971576 -.00000349  00000-0 -38522-5 0  9993,2 52139  53.2175  98.7596 0001297  94.8086 265.3055 15.08850422 74858,6917.849,95.437,540.611,538.816,0.0
52139.0,STARLINK-3730,PAYLOAD,2023-07-17 22:15:00,15.08836733,0.0001212,53.2172,94.5969,87.7387,272.3744,2.8677e-05,1.69e-06,0.0,0 STARLINK-3730,1 52139U 22029BD  23198.92708401  .00000169  00000-0  28677-4 0  9999,2 52139  53.2172  94.5969 0001212  87.7387 272.3744 15.08836733 74992,6917.89,95.438,540.594,538.917,0.0
52139.0,STARLINK-3730,PAYLOAD,2023-07-19 02:51:56,15.08842496,0.0001289,53.218,89.2441,81.4595,278.6544,1.1624e-05,-1.03e-06,0.0,0 STARLINK-3730,1 52139U 22029BD  23200.11940210 -.00000103  00000-0  11624-4 0  9993,2 52139  53.2180  89.2441 0001289  81.4595 278.6544 15.08842496 75174,6917.873,95.437,540.629,538.846,0.0
52139.0,STARLINK-3730,PAYLOAD,2023-07-20 15:25:49,15.08831605,8.56e-05,53.2174,82.4047,103.3167,256.792,3.7477e-05,3.09e-06,0.0,0 STARLINK-3730,1 52139U 22029BD  23201.64293297  .00000309  00000-0  37477-4 0  9999,2 52139  53.2174  82.4047 0000856 103.3167 256.7920 15.08831605 75403,6917.906,95.438,540.363,539.179,0.0
52139.0,STARLINK-3730,PAYLOAD,2023-07-21 02:33:30,15.08842271,0.0001212,53.2168,80.3248,90.3911,269.722,3.0098e-05,1.91e-06,0.0,0 STARLINK-3730,1 52139U 22029BD  23202.10660808  .00000191  00000-0  30098-4 0  9998,2 52139  53.2168  80.3248 0001212  90.3911 269.7220 15.08842271 75470,6917.873,95.437,540.577,538.9,0.0
52139.0,STARLINK-3730,PAYLOAD,2023-07-24 00:30:29,15.0883785,0.0001096,53.2167,67.2421,81.7998,278.3118,-5.8617e-05,-1.22e-05,0.0,0 STARLINK-3730,1 52139U 22029BD  23205.02117535 -.00001220  00000-0 -58617-4 0  9999,2 52139  53.2167  67.2421 0001096  81.7998 278.3118 15.08837850 75913,6917.887,95.438,540.51,538.994,0.0
52139.0,STARLINK-3730,PAYLOAD,2023-07-25 14:39:44,15.08794545,0.0002077,53.2144,60.0984,113.3091,246.812,0.00063334,9.794e-05,0.0,0 STARLINK-3730,1 52139U 22029BD  23206.61093506  .00009794  00000-0  63334-3 0  9999,2 52139  53.2144  60.0984 0002077 113.3091 246.8120 15.08794545 76152,6918.019,95.44,541.321,538.447,0.0
52139.0,STARLINK-3730,PAYLOAD,2023-07-26 00:12:03,15.08837829,9.72e-05,53.2184,58.3173,116.3301,243.7791,2.2072e-05,6.4e-07,0.0,0 STARLINK-3730,1 52139U 22029BD  23207.00837165  .00000064  00000-0  22072-4 0  9996,2 52139  53.2184  58.3173 0000972 116.3301 243.7791 15.08837829 76215,6917.887,95.438,540.424,539.08,0.0
52139.0,STARLINK-3730,PAYLOAD,2023-07-26 20:52:02,15.08893237,6.47e-05,53.2169,54.4536,83.0468,277.0597,-0.00062708,-0.00010268,0.0,0 STARLINK-3730,1 52139U 22029BD  23207.86947412 -.00010268  00000-0 -62708-3 0  9995,2 52139  53.2169  54.4536 0000647  83.0468 277.0597 15.08893237 76344,6917.718,95.434,540.03,539.135,0.0
52139.0,STARLINK-3730,PAYLOAD,2023-07-27 00:02:48,15.08880477,0.0001174,53.217,53.8583,107.8405,252.2715,-0.00040619,-6.754e-05,0.0,0 STARLINK-3730,1 52139U 22029BD  23208.00195332 -.00006754  00000-0 -40619-3 0  9990,2 52139  53.2170  53.8583 0001174 107.8405 252.2715 15.08880477 76364,6917.757,95.435,540.434,538.81,0.0
52139.0,STARLINK-3730,PAYLOAD,2023-07-27 06:24:22,15.08836068,7.02e-05,53.2174,52.6698,86.9274,273.1798,7.8907e-05,9.68e-06,0.0,0 STARLINK-3730,1 52139U 22029BD  23208.26692972  .00000968  00000-0  78907-4 0  9991,2 52139  53.2174  52.6698 0000702  86.9274 273.1798 15.08836068 76404,6917.892,95.438,540.243,539.272,0.0
52139.0,STARLINK-3730,PAYLOAD,2023-07-27 14:21:19,15.08826493,0.0001171,53.2176,51.182,110.2569,249.8549,-1.9846e-05,-6.04e-06,0.0,0 STARLINK-3730,1 52139U 22029BD  23208.59814131 -.00000604  00000-0 -19846-4 0  9996,2 52139  53.2176  51.1820 0001171 110.2569 249.8549 15.08826493 76456,6917.922,95.438,540.597,538.977,0.0
52139.0,STARLINK-3730,PAYLOAD,2023-07-27 20:42:51,15.08830431,0.0001052,53.2172,49.9936,106.0945,254.0163,3.2445e-06,-2.36e-06,0.0,0 STARLINK-3730,1 52139U 22029BD  23208.86309993 -.00000236  00000-0  32445-5 0  9992,2 52139  53.2172  49.9936 0001052 106.0945 254.0163 15.08830431 76495,6917.91,95.438,540.502,539.047,0.0
52139.0,STARLINK-3730,PAYLOAD,2023-07-28 12:36:43,15.08835371,0.0001313,53.2165,47.0196,117.4668,242.6457,3.9204e-05,3.36e-06,0.0,0 STARLINK-3730,1 52139U 22029BD  23209.52549823  .00000336  00000-0  39204-4 0  9993,2 52139  53.2165  47.0196 0001313 117.4668 242.6457 15.08835371 76590,6917.895,95.438,540.668,538.851,0.0
